{"type": "FeatureCollection", "features": [ {"type": "Feature", "properties": {"norad_id": 42987, "name": "SKYSAT-C11", "group": "resource", "lat": -47.65425302504823, "lon": 138.4719424498596, "alt_km": 431.04377416270927, "timestamp": "2025-12-18T14:52:07.687983+00:00", "meta": {"OBJECT_NAME": "SKYSAT-C11", "OBJECT_ID": "2017-068A", "EPOCH": "2025-12-18T04:12:52.695360", "MEAN_MOTION": 15.47673714, "ECCENTRICITY": 0.00011655, "INCLINATION": 97.4139, "RA_OF_ASC_NODE": 129.8026, "ARG_OF_PERICENTER": 100.9043, "MEAN_ANOMALY": 259.2338, "EPHEMERIS_TYPE": 0, "CLASSIFICATION_TYPE": "U", "NORAD_CAT_ID": 42987, "ELEMENT_SET_NO": 999, "REV_AT_EPOCH": 45515, "BSTAR": 0.00038996641, "MEAN_MOTION_DOT": 0.00020081, "MEAN_MOTION_DDOT": 0}, "tle": {"line1": "1 42987U 17068A   25352.17560990  .00020081  00000+0  38997-3 0  9995", "line2": "2 42987  97.4139 129.8026 0001165 100.9043 259.2338 15.47673714455150"}}, "geometry": {"type": "Point", "coordinates": [138.4719424498596, -47.65425302504823]}}, {"type": "Feature", "properties": {"norad_id": 42988, "name": "SKYSAT-C10", "group": "resource", "lat": 64.81912029131178, "lon": 107.38096551632133, "alt_km": 459.524657584745, "timestamp": "2025-12-18T14:52:07.687993+00:00", "meta": {"OBJECT_NAME": "SKYSAT-C10", "OBJECT_ID": "2017-068B", "EPOCH": "2025-12-18T05:10:41.111040", "MEAN_MOTION": 15.32178093, "ECCENTRICITY": 0.00054304, "INCLINATION": 97.4258, "RA_OF_ASC_NODE": 123.0819, "ARG_OF_PERICENTER": 88.316, "MEAN_ANOMALY": 271.8704, "EPHEMERIS_TYPE": 0, "CLASSIFICATION_TYPE": "U", "NORAD_CAT_ID": 42988, "ELEMENT_SET_NO": 999, "REV_AT_EPOCH": 45463, "BSTAR": 0.00031254327, "MEAN_MOTION_DOT": 9.638e-05, "MEAN_MOTION_DDOT": 0}, "tle": {"line1": "1 42988U 17068B   25352.21575360  .00009638  00000+0  31254-3 0  9992", "line2": "2 42988  97.4258 123.0819 0005430  88.3160 271.8704 15.32178093454630"}}, "geometry": {"type": "Point", "coordinates": [107.38096551632133, 64.81912029131178]}}, {"type": "Feature", "properties": {"norad_id": 42989, "name": "SKYSAT-C9", "group": "resource", "lat": -2.1914698889927164, "lon": 123.20547122225098, "alt_km": 458.3844659631759, "timestamp": "2025-12-18T14:52:07.688003+00:00", "meta": {"OBJECT_NAME": "SKYSAT-C9", "OBJECT_ID": "2017-068C", "EPOCH": "2025-12-18T07:03:42.551136", "MEAN_MOTION": 15.36190512, "ECCENTRICITY": 0.00105702, "INCLINATION": 97.419, "RA_OF_ASC_NODE": 122.5919, "ARG_OF_PERICENTER": 69.9784, "MEAN_ANOMALY": 290.2597, "EPHEMERIS_TYPE": 0, "CLASSIFICATION_TYPE": "U", "NORAD_CAT_ID": 42989, "ELEMENT_SET_NO": 999, "REV_AT_EPOCH": 45493, "BSTAR": 0.00034468923, "MEAN_MOTION_DOT": 0.00012101, "MEAN_MOTION_DDOT": 0}, "tle": {"line1": "1 42989U 17068C   25352.29424249  .00012101  00000+0  34469-3 0  9990", "line2": "2 42989  97.4190 122.5919 0010570  69.9784 290.2597 15.36190512454931"}}, "geometry": {"type": "Point", "coordinates": [123.20547122225098, -2.1914698889927164]}}, {"type": "Feature", "properties": {"norad_id": 42990, "name": "SKYSAT-C8", "group": "resource", "lat": -79.45170603485703, "lon": -101.83271534018172, "alt_km": 473.6322284718299, "timestamp": "2025-12-18T14:52:07.688013+00:00", "meta": {"OBJECT_NAME": "SKYSAT-C8", "OBJECT_ID": "2017-068D", "EPOCH": "2025-12-18T04:19:40.626912", "MEAN_MOTION": 15.33039437, "ECCENTRICITY": 0.00011978, "INCLINATION": 97.428, "RA_OF_ASC_NODE": 122.2043, "ARG_OF_PERICENTER": 320.7312, "MEAN_ANOMALY": 39.3843, "EPHEMERIS_TYPE": 0, "CLASSIFICATION_TYPE": "U", "NORAD_CAT_ID": 42990, "ELEMENT_SET_NO": 999, "REV_AT_EPOCH": 45454, "BSTAR": 0.00033004437, "MEAN_MOTION_DOT": 0.00010458, "MEAN_MOTION_DDOT": 0}, "tle": {"line1": "1 42990U 17068D   25352.18033133  .00010458  00000+0  33004-3 0  9995", "line2": "2 42990  97.4280 122.2043 0001197 320.7312  39.3843 15.33039437454546"}}, "geometry": {"type": "Point", "coordinates": [-101.83271534018172, -79.45170603485703]}}, {"type": "Feature", "properties": {"norad_id": 42991, "name": "SKYSAT-C7", "group": "resource", "lat": 72.93734288166367, "lon": -31.160480399063665, "alt_km": 459.5538557360751, "timestamp": "2025-12-18T14:52:07.688023+00:00", "meta": {"OBJECT_NAME": "SKYSAT-C7", "OBJECT_ID": "2017-068E", "EPOCH": "2025-12-17T21:10:21.597024", "MEAN_MOTION": 15.32433807, "ECCENTRICITY": 0.00073248, "INCLINATION": 97.4288, "RA_OF_ASC_NODE": 122.9414, "ARG_OF_PERICENTER": 41.2137, "MEAN_ANOMALY": 318.9657, "EPHEMERIS_TYPE": 0, "CLASSIFICATION_TYPE": "U", "NORAD_CAT_ID": 42991, "ELEMENT_SET_NO": 999, "REV_AT_EPOCH": 45456, "BSTAR": 0.00028855662, "MEAN_MOTION_DOT": 8.966e-05, "MEAN_MOTION_DDOT": 0}, "tle": {"line1": "1 42991U 17068E   25351.88219441  .00008966  00000+0  28856-3 0  9990", "line2": "2 42991  97.4288 122.9414 0007324  41.2137 318.9657 15.32433807454561"}}, "geometry": {"type": "Point", "coordinates": [-31.160480399063665, 72.93734288166367]}}, {"type": "Feature", "properties": {"norad_id": 42992, "name": "SKYSAT-C6", "group": "resource", "lat": -24.422007279349653, "lon": -59.282808950722625, "alt_km": 479.25419539100676, "timestamp": "2025-12-18T14:52:07.688033+00:00", "meta": {"OBJECT_NAME": "SKYSAT-C6", "OBJECT_ID": "2017-068F", "EPOCH": "2025-12-18T04:34:15.430368", "MEAN_MOTION": 15.31600046, "ECCENTRICITY": 0.00050692, "INCLINATION": 97.4321, "RA_OF_ASC_NODE": 123.6852, "ARG_OF_PERICENTER": 67.7962, "MEAN_ANOMALY": 292.3817, "EPHEMERIS_TYPE": 0, "CLASSIFICATION_TYPE": "U", "NORAD_CAT_ID": 42992, "ELEMENT_SET_NO": 999, "REV_AT_EPOCH": 45459, "BSTAR": 0.00032153489, "MEAN_MOTION_DOT": 9.739e-05, "MEAN_MOTION_DDOT": 0}, "tle": {"line1": "1 42992U 17068F   25352.19045637  .00009739  00000+0  32153-3 0  9994", "line2": "2 42992  97.4321 123.6852 0005069  67.7962 292.3817 15.31600046454593"}}, "geometry": {"type": "Point", "coordinates": [-59.282808950722625, -24.422007279349653]}}, {"type": "Feature", "properties": {"norad_id": 43111, "name": "CARTOSAT-2F", "group": "resource", "lat": 51.40849757307192, "lon": 40.74877116437452, "alt_km": 503.04721058126415, "timestamp": "2025-12-18T14:52:07.688043+00:00", "meta": {"OBJECT_NAME": "CARTOSAT-2F", "OBJECT_ID": "2018-004A", "EPOCH": "2025-12-18T06:44:14.474976", "MEAN_MOTION": 15.1933089, "ECCENTRICITY": 0.00014463, "INCLINATION": 97.4319, "RA_OF_ASC_NODE": 49.8294, "ARG_OF_PERICENTER": 137.6942, "MEAN_ANOMALY": 222.4404, "EPHEMERIS_TYPE": 0, "CLASSIFICATION_TYPE": "U", "NORAD_CAT_ID": 43111, "ELEMENT_SET_NO": 999, "REV_AT_EPOCH": 43986, "BSTAR": 0.00019521269, "MEAN_MOTION_DOT": 4.056e-05, "MEAN_MOTION_DDOT": 0}, "tle": {"line1": "1 43111U 18004A   25352.28072309  .00004056  00000+0  19521-3 0  9996", "line2": "2 43111  97.4319  49.8294 0001446 137.6942 222.4404 15.19330890439865"}}, "geometry": {"type": "Point", "coordinates": [40.74877116437452, 51.40849757307192]}}, {"type": "Feature", "properties": {"norad_id": 43259, "name": "GAOFEN-1 02", "group": "resource", "lat": -7.627458237490646, "lon": 51.501463121215735, "alt_km": 645.9331219819487, "timestamp": "2025-12-18T14:52:07.688053+00:00", "meta": {"OBJECT_NAME": "GAOFEN-1 02", "OBJECT_ID": "2018-031A", "EPOCH": "2025-12-18T06:46:15.550752", "MEAN_MOTION": 14.76428112, "ECCENTRICITY": 0.0002103, "INCLINATION": 98.0806, "RA_OF_ASC_NODE": 50.0738, "ARG_OF_PERICENTER": 195.9186, "MEAN_ANOMALY": 164.1957, "EPHEMERIS_TYPE": 0, "CLASSIFICATION_TYPE": "U", "NORAD_CAT_ID": 43259, "ELEMENT_SET_NO": 999, "REV_AT_EPOCH": 41600, "BSTAR": 0.00015505706, "MEAN_MOTION_DOT": 1.026e-05, "MEAN_MOTION_DDOT": 0}, "tle": {"line1": "1 43259U 18031A   25352.28212443  .00001026  00000+0  15506-3 0  9997", "line2": "2 43259  98.0806  50.0738 0002103 195.9186 164.1957 14.76428112416004"}}, "geometry": {"type": "Point", "coordinates": [51.501463121215735, -7.627458237490646]}}, {"type": "Feature", "properties": {"norad_id": 43260, "name": "GAOFEN-1 03", "group": "resource", "lat": 70.25829928695478, "lon": -106.396282998902, "alt_km": 634.9763323524867, "timestamp": "2025-12-18T14:52:07.688064+00:00", "meta": {"OBJECT_NAME": "GAOFEN-1 03", "OBJECT_ID": "2018-031B", "EPOCH": "2025-12-18T07:52:30.481248", "MEAN_MOTION": 14.76448348, "ECCENTRICITY": 0.00017527, "INCLINATION": 98.0792, "RA_OF_ASC_NODE": 49.9957, "ARG_OF_PERICENTER": 293.5505, "MEAN_ANOMALY": 66.552, "EPHEMERIS_TYPE": 0, "CLASSIFICATION_TYPE": "U", "NORAD_CAT_ID": 43260, "ELEMENT_SET_NO": 999, "REV_AT_EPOCH": 41600, "BSTAR": 0.00011597342, "MEAN_MOTION_DOT": 7.55e-06, "MEAN_MOTION_DDOT": 0}, "tle": {"line1": "1 43260U 18031B   25352.32813057  .00000755  00000+0  11597-3 0  9996", "line2": "2 43260  98.0792  49.9957 0001752 293.5505  66.5520 14.76448348416003"}}, "geometry": {"type": "Point", "coordinates": [-106.396282998902, 70.25829928695478]}}, {"type": "Feature", "properties": {"norad_id": 43262, "name": "GAOFEN-1 04", "group": "resource", "lat": -56.869815152231446, "lon": -142.11557329086463, "alt_km": 648.1963818934646, "timestamp": "2025-12-18T14:52:07.688073+00:00", "meta": {"OBJECT_NAME": "GAOFEN-1 04", "OBJECT_ID": "2018-031D", "EPOCH": "2025-12-18T07:17:22.286688", "MEAN_MOTION": 14.76460753, "ECCENTRICITY": 8.51e-05, "INCLINATION": 98.0807, "RA_OF_ASC_NODE": 50.1418, "ARG_OF_PERICENTER": 60.4729, "MEAN_ANOMALY": 299.6565, "EPHEMERIS_TYPE": 0, "CLASSIFICATION_TYPE": "U", "NORAD_CAT_ID": 43262, "ELEMENT_SET_NO": 999, "REV_AT_EPOCH": 41599, "BSTAR": 8.125764e-05, "MEAN_MOTION_DOT": 5.14e-06, "MEAN_MOTION_DDOT": 0}, "tle": {"line1": "1 43262U 18031D   25352.30373017  .00000514  00000+0  81258-4 0  9998", "line2": "2 43262  98.0807  50.1418 0000851  60.4729 299.6565 14.76460753415995"}}, "geometry": {"type": "Point", "coordinates": [-142.11557329086463, -56.869815152231446]}}]}